0 COSMOS 2213
1 22184U 92068C   13284.50893020  .00000007  00000-0 -22606-4 0  6824
2 22184 082.6006 055.2256 0002564 169.6690 269.9641 12.62502259966653
0 COSMOS 2213
1 22184U 92068C   13286.82652667  .00000007  00000-0 -21388-4 0  6838
2 22184 082.6013 053.7505 0002655 164.6586 003.2130 12.62502273966941
0 COSMOS 2213
1 22184U 92068C   13288.87607917  .00000015  00000-0  22561-4 0  6846
2 22184 082.6017 052.4462 0002706 161.5633 316.8930 12.62502035967206
0 COSMOS 2213
1 22184U 92068C   13291.39951038  .00000045  00000-0  19035-3 0  6858
2 22184 082.6019 050.8406 0002765 157.7316 264.0166 12.62502051967526
0 COSMOS 2213
1 22184U 92068C   13293.80025381  .00000054  00000-0  23984-3 0  6868
2 22184 082.6019 049.3128 0002853 153.0448 014.6560 12.62502238967820
0 COSMOS 2213
1 22184U 92068C   13295.84963584  .00000031  00000-0  11530-3 0  6870
2 22184 082.6020 048.0086 0002915 149.4719 328.0383 12.62502535968084
